CCSDS_OMM_VERS = 2.0
CREATION_DATE  = 
ORIGINATOR     = 

OBJECT_NAME    = CYGNUS NG-23
OBJECT_ID      = 2025-208A
CENTER_NAME    = EARTH
REF_FRAME      = TEME
TIME_SYSTEM    = UTC
MEAN_ELEMENT_THEORY = SGP/SGP4

EPOCH          = 2026-01-03T12:47:11.243328
MEAN_MOTION    = 15.49066978
ECCENTRICITY   = .00075608
INCLINATION    = 51.6327
RA_OF_ASC_NODE = 34.5663
ARG_OF_PERICENTER = 336.0107
MEAN_ANOMALY   = 24.0528

EPHEMERIS_TYPE = 0
CLASSIFICATION_TYPE = U
NORAD_CAT_ID   = 65616
ELEMENT_SET_NO = 999
REV_AT_EPOCH   = 22
BSTAR          = .25296627E-3
MEAN_MOTION_DOT = .13553E-3
MEAN_MOTION_DDOT = 0

CCSDS_OMM_VERS = 2.0
CREATION_DATE  = 
ORIGINATOR     = 

OBJECT_NAME    = DRAGONFLY
OBJECT_ID      = 1998-067XH
CENTER_NAME    = EARTH
REF_FRAME      = TEME
TIME_SYSTEM    = UTC
MEAN_ELEMENT_THEORY = SGP/SGP4

EPOCH          = 2026-01-03T10:11:05.803872
MEAN_MOTION    = 15.81556255
ECCENTRICITY   = .00087454
INCLINATION    = 51.6230
RA_OF_ASC_NODE = 24.0476
ARG_OF_PERICENTER = 42.2754
MEAN_ANOMALY   = 317.8921

EPHEMERIS_TYPE = 0
CLASSIFICATION_TYPE = U
NORAD_CAT_ID   = 65729
ELEMENT_SET_NO = 999
REV_AT_EPOCH   = 1658
BSTAR          = .18150148E-2
MEAN_MOTION_DOT = .387428E-2
MEAN_MOTION_DDOT = 0

CCSDS_OMM_VERS = 2.0
CREATION_DATE  = 
ORIGINATOR     = 

OBJECT_NAME    = 1998-067XK
OBJECT_ID      = 1998-067XK
CENTER_NAME    = EARTH
REF_FRAME      = TEME
TIME_SYSTEM    = UTC
MEAN_ELEMENT_THEORY = SGP/SGP4

EPOCH          = 2026-01-03T11:13:21.337248
MEAN_MOTION    = 15.70784398
ECCENTRICITY   = .00053143
INCLINATION    = 51.6285
RA_OF_ASC_NODE = 26.6310
ARG_OF_PERICENTER = 17.8507
MEAN_ANOMALY   = 342.2676

EPHEMERIS_TYPE = 0
CLASSIFICATION_TYPE = U
NORAD_CAT_ID   = 65731
ELEMENT_SET_NO = 999
REV_AT_EPOCH   = 1655
BSTAR          = .14011361E-2
MEAN_MOTION_DOT = .181227E-2
MEAN_MOTION_DDOT = 0

CCSDS_OMM_VERS = 2.0
CREATION_DATE  = 
ORIGINATOR     = 

OBJECT_NAME    = RSP-03
OBJECT_ID      = 1998-067XL
CENTER_NAME    = EARTH
REF_FRAME      = TEME
TIME_SYSTEM    = UTC
MEAN_ELEMENT_THEORY = SGP/SGP4

EPOCH          = 2026-01-03T07:04:52.270752
MEAN_MOTION    = 15.75467795
ECCENTRICITY   = .0006444
INCLINATION    = 51.6255
RA_OF_ASC_NODE = 26.2072
ARG_OF_PERICENTER = 23.9890
MEAN_ANOMALY   = 336.1408

EPHEMERIS_TYPE = 0
CLASSIFICATION_TYPE = U
NORAD_CAT_ID   = 65732
ELEMENT_SET_NO = 999
REV_AT_EPOCH   = 1655
BSTAR          = .15841E-2
MEAN_MOTION_DOT = .252732E-2
MEAN_MOTION_DDOT = 0

CCSDS_OMM_VERS = 2.0
CREATION_DATE  = 
ORIGINATOR     = 

OBJECT_NAME    = GHS-01
OBJECT_ID      = 1998-067XM
CENTER_NAME    = EARTH
REF_FRAME      = TEME
TIME_SYSTEM    = UTC
MEAN_ELEMENT_THEORY = SGP/SGP4

EPOCH          = 2026-01-02T10:28:56.152992
MEAN_MOTION    = 15.87073258
ECCENTRICITY   = .00096481
INCLINATION    = 51.6261
RA_OF_ASC_NODE = 27.9593
ARG_OF_PERICENTER = 41.4531
MEAN_ANOMALY   = 318.7204

EPHEMERIS_TYPE = 0
CLASSIFICATION_TYPE = U
NORAD_CAT_ID   = 65733
ELEMENT_SET_NO = 999
REV_AT_EPOCH   = 1645
BSTAR          = .18981522E-2
MEAN_MOTION_DOT = .536437E-2
MEAN_MOTION_DDOT = 0

CCSDS_OMM_VERS = 2.0
CREATION_DATE  = 
ORIGINATOR     = 

OBJECT_NAME    = YOTSUBA-KULOVER
OBJECT_ID      = 1998-067XN
CENTER_NAME    = EARTH
REF_FRAME      = TEME
TIME_SYSTEM    = UTC
MEAN_ELEMENT_THEORY = SGP/SGP4

EPOCH          = 2026-01-03T08:25:53.146848
MEAN_MOTION    = 15.62889433
ECCENTRICITY   = .00035275
INCLINATION    = 51.6291
RA_OF_ASC_NODE = 31.1089
ARG_OF_PERICENTER = 46.9622
MEAN_ANOMALY   = 313.1667

EPHEMERIS_TYPE = 0
CLASSIFICATION_TYPE = U
NORAD_CAT_ID   = 65941
ELEMENT_SET_NO = 999
REV_AT_EPOCH   = 1323
BSTAR          = .13336439E-2
MEAN_MOTION_DOT = .124314E-2
MEAN_MOTION_DDOT = 0

CCSDS_OMM_VERS = 2.0
CREATION_DATE  = 
ORIGINATOR     = 

OBJECT_NAME    = BOTAN
OBJECT_ID      = 1998-067XP
CENTER_NAME    = EARTH
REF_FRAME      = TEME
TIME_SYSTEM    = UTC
MEAN_ELEMENT_THEORY = SGP/SGP4

EPOCH          = 2026-01-03T08:39:56.002176
MEAN_MOTION    = 15.68383653
ECCENTRICITY   = .00044161
INCLINATION    = 51.6271
RA_OF_ASC_NODE = 29.6684
ARG_OF_PERICENTER = 36.8613
MEAN_ANOMALY   = 323.2687

EPHEMERIS_TYPE = 0
CLASSIFICATION_TYPE = U
NORAD_CAT_ID   = 65942
ELEMENT_SET_NO = 999
REV_AT_EPOCH   = 1325
BSTAR          = .16993233E-2
MEAN_MOTION_DOT = .19948E-2
MEAN_MOTION_DDOT = 0

CCSDS_OMM_VERS = 2.0
CREATION_DATE  = 
ORIGINATOR     = 

OBJECT_NAME    = E-KAGAKU-1
OBJECT_ID      = 1998-067XQ
CENTER_NAME    = EARTH
REF_FRAME      = TEME
TIME_SYSTEM    = UTC
MEAN_ELEMENT_THEORY = SGP/SGP4

EPOCH          = 2026-01-03T02:17:28.101696
MEAN_MOTION    = 15.62853332
ECCENTRICITY   = .00021793
INCLINATION    = 51.6298
RA_OF_ASC_NODE = 32.4065
ARG_OF_PERICENTER = 34.9595
MEAN_ANOMALY   = 325.1542

EPHEMERIS_TYPE = 0
CLASSIFICATION_TYPE = U
NORAD_CAT_ID   = 65943
ELEMENT_SET_NO = 999
REV_AT_EPOCH   = 1319
BSTAR          = .12174142E-2
MEAN_MOTION_DOT = .113099E-2
MEAN_MOTION_DDOT = 0

CCSDS_OMM_VERS = 2.0
CREATION_DATE  = 
ORIGINATOR     = 

OBJECT_NAME    = HRC MONOBLOCK CAMERA
OBJECT_ID      = 1998-067XR
CENTER_NAME    = EARTH
REF_FRAME      = TEME
TIME_SYSTEM    = UTC
MEAN_ELEMENT_THEORY = SGP/SGP4

EPOCH          = 2026-01-03T13:36:28.564992
MEAN_MOTION    = 15.55835558
ECCENTRICITY   = .00014592
INCLINATION    = 51.6307
RA_OF_ASC_NODE = 32.5468
ARG_OF_PERICENTER = 303.4363
MEAN_ANOMALY   = 56.6489

EPHEMERIS_TYPE = 0
CLASSIFICATION_TYPE = U
NORAD_CAT_ID   = 66052
ELEMENT_SET_NO = 999
REV_AT_EPOCH   = 1223
BSTAR          = .66044048E-3
MEAN_MOTION_DOT = .4633E-3
MEAN_MOTION_DDOT = 0

CCSDS_OMM_VERS = 2.0
CREATION_DATE  = 
ORIGINATOR     = 

OBJECT_NAME    = HTV-X1
OBJECT_ID      = 2025-241A
CENTER_NAME    = EARTH
REF_FRAME      = TEME
TIME_SYSTEM    = UTC
MEAN_ELEMENT_THEORY = SGP/SGP4

EPOCH          = 2026-01-03T12:47:11.243328
MEAN_MOTION    = 15.49066978
ECCENTRICITY   = .00075608
INCLINATION    = 51.6327
RA_OF_ASC_NODE = 34.5663
ARG_OF_PERICENTER = 336.0107
MEAN_ANOMALY   = 24.0528

EPHEMERIS_TYPE = 0
CLASSIFICATION_TYPE = U
NORAD_CAT_ID   = 66174
ELEMENT_SET_NO = 999
REV_AT_EPOCH   = 51
BSTAR          = .25296627E-3
MEAN_MOTION_DOT = .13553E-3
MEAN_MOTION_DDOT = 0

CCSDS_OMM_VERS = 2.0
CREATION_DATE  = 
ORIGINATOR     = 

OBJECT_NAME    = SZ-21 MODULE
OBJECT_ID      = 2025-246C
CENTER_NAME    = EARTH
REF_FRAME      = TEME
TIME_SYSTEM    = UTC
MEAN_ELEMENT_THEORY = SGP/SGP4

EPOCH          = 2026-01-03T15:30:17.045568
MEAN_MOTION    = 15.63843354
ECCENTRICITY   = .00021427
INCLINATION    = 41.4753
RA_OF_ASC_NODE = 242.2924
ARG_OF_PERICENTER = 30.6119
MEAN_ANOMALY   = 329.4846

EPHEMERIS_TYPE = 0
CLASSIFICATION_TYPE = U
NORAD_CAT_ID   = 66515
ELEMENT_SET_NO = 999
REV_AT_EPOCH   = 787
BSTAR          = .39898937E-3
MEAN_MOTION_DOT = .38373E-3
MEAN_MOTION_DDOT = 0

CCSDS_OMM_VERS = 2.0
CREATION_DATE  = 
ORIGINATOR     = 

OBJECT_NAME    = SHENZHOU-22
OBJECT_ID      = 2025-272A
CENTER_NAME    = EARTH
REF_FRAME      = TEME
TIME_SYSTEM    = UTC
MEAN_ELEMENT_THEORY = SGP/SGP4

EPOCH          = 2026-01-03T14:44:43.276128
MEAN_MOTION    = 15.60137446
ECCENTRICITY   = .00105319
INCLINATION    = 41.4656
RA_OF_ASC_NODE = 243.8178
ARG_OF_PERICENTER = 212.4903
MEAN_ANOMALY   = 147.5288

EPHEMERIS_TYPE = 0
CLASSIFICATION_TYPE = U
NORAD_CAT_ID   = 66645
ELEMENT_SET_NO = 999
REV_AT_EPOCH   = 26740
BSTAR          = .29443616E-3
MEAN_MOTION_DOT = .24416E-3
MEAN_MOTION_DDOT = 0

